STARLINK-2426           
1 47836U 21018BB  26068.73125604  .00005782  00000+0  20717-3 0  9991
2 47836  53.1591 244.8074 0001254  73.0469 287.0670 15.30201942276703
YAOGAN-43 01D           
1 60461U 24148D   26068.43560480  .00010676  00000+0  37766-3 0  9999
2 60461  35.0010  61.7102 0002556 326.2473  33.8080 15.28369377 87008
